OBJECT_NAME,OBJECT_ID,EPOCH,MEAN_MOTION,ECCENTRICITY,INCLINATION,RA_OF_ASC_NODE,ARG_OF_PERICENTER,MEAN_ANOMALY,EPHEMERIS_TYPE,CLASSIFICATION_TYPE,NORAD_CAT_ID,ELEMENT_SET_NO,REV_AT_EPOCH,BSTAR,MEAN_MOTION_DOT,MEAN_MOTION_DDOT
STARLINK-34495,2025-129S,2026-03-09T10:57:54.353376,14.98342618,.00028,70.0016,74.9999,269.7544,90.3294,0,U,64428,999,4125,.45958E-3,.5397E-4,0
MACSAT 2 (M 2),1990-043B,2026-03-09T11:52:05.222496,14.80500759,.0082232,89.7421,248.3269,165.3138,195.0504,0,U,20608,999,92364,.23137E-3,.1895E-4,0
